APRIZESAT 2             
1 28366U 04025A   26179.90462362  .00000195  00000+0  73899-4 0  9997
2 28366  98.1023 345.2222 0104852 214.1189 145.3231 14.38040618153324
SAUDICOMSAT 1           
1 28369U 04025D   26179.77179377  .00000347  00000+0  90753-4 0  9993
2 28369  98.5770 190.2158 0031887 350.3725   9.6857 14.55482354165811
SAUDICOMSAT 2           
1 28370U 04025E   26179.92522632  .00000210  00000+0  65874-4 0  9993
2 28370  98.6639 192.5035 0054586 223.2862 136.4037 14.49987064161803
APRIZESAT 1             
1 28372U 04025G   26179.94240435  .00000265  00000+0  77008-4 0  9997
2 28372  98.6302 190.9879 0045616 118.7832 241.7955 14.51783407163617
NANOSAT-1               
1 28493U 04049B   26179.93160307  .00000995  00000+0  13829-3 0  9995
2 28493  98.2290 316.8806 0002786 247.2375 112.8542 14.80181731157182
SAUDICOMSAT 7           
1 31119U 07012C   26179.91975057  .00000494  00000+0  97443-4 0  9990
2 31119  98.3784 154.2919 0056120 158.4563 201.9020 14.66120883 24158
SAUDICOMSAT 6           
1 31121U 07012E   26179.85734171  .00000476  00000+0  10088-3 0  9995
2 31121  98.4103 147.5912 0070483 290.9241  68.4426 14.62570664 21894
SAUDICOMSAT 5           
1 31124U 07012H   26179.74048994  .00000687  00000+0  12648-3 0  9995
2 31124  98.3494 154.8534 0048746  89.3047 271.3742 14.68171270 25291
SAUDICOMSAT 3           
1 31125U 07012J   26179.68097834  .00000837  00000+0  14449-3 0  9994
2 31125  98.3148 155.3401 0039523  17.6875 342.5696 14.70724607 26519
SAUDICOMSAT 4           
1 31127U 07012L   26179.90613926  .00000382  00000+0  80071-4 0  9997
2 31127  98.3989 152.7160 0062471 220.9481 138.7020 14.64522294 23005
APRIZESAT 4             
1 35684U 09041D   26179.65294848  .00000649  00000+0  84035-4 0  9993
2 35684  98.1411 255.2019 0041922 284.8620  74.7952 14.83893333913062
APRIZESAT 3             
1 35686U 09041F   26179.93566750  .00000773  00000+0  71694-4 0  9995
2 35686  98.2076 333.7233 0062304  29.3151 331.1541 14.96273954918132
S-NET D                 
1 43186U 18014G   26179.80931550  .00004953  00000+0  25554-3 0  9996
2 43186  97.5360  84.5275 0007624 351.7760   8.3346 15.16778292460522
S-NET B                 
1 43187U 18014H   26179.68905072  .00004988  00000+0  25752-3 0  9991
2 43187  97.5363  84.3953 0008140 346.2219  13.8790 15.16746619460509
S-NET A                 
1 43188U 18014J   26179.80812912  .00004883  00000+0  25192-3 0  9998
2 43188  97.5374  84.7245 0007959 346.6416  13.4605 15.16786825460526
S-NET C                 
1 43189U 18014K   26179.69298471  .00004909  00000+0  25353-3 0  9992
2 43189  97.5390  84.6866 0009115 337.3974  22.6857 15.16738486459052
SALSAT                  
1 46495U 20068K   26179.98408402  .00006804  00000+0  23731-3 0  9990
2 46495  97.8845 183.7681 0007870 257.4321 102.6038 15.29961615317164
OOV-CUBE (TUBSAT-30)    
1 60240U 24128F   26179.36696796  .00001714  00000+0  14069-3 0  9991
2 60240  61.9924 186.5879 0043237 136.2488 224.2043 15.02811881107796
LPNTSAT-001 (IOD-1)     
1 68408U 26065A   26179.60815089  .00002656  00000+0  13136-3 0  9992
2 68408  97.4007  59.8759 0015459 330.1341  29.9009 15.18593724 13993
